MATS
1 26702U 01007A   18092.93331363  .00000660  00000-0  47606-4 0  9995
2 26702  97.5969 111.6209 0011919 138.1179 222.0963 15.07483334934698
